{
    "links": {
        "self": "http://www.neowsapp.com/rest/v1/neo/3624075?api_key=iIulBulltgU6a56xZRHN4H3l9WmuAYTsLGpBGhQ2"
    },
    "id": "3624075",
    "neo_reference_id": "3624075",
    "name": "(2013 AG76)",
    "designation": "2013 AG76",
    "nasa_jpl_url": "http://ssd.jpl.nasa.gov/sbdb.cgi?sstr=3624075",
    "absolute_magnitude_h": 20.3,
    "estimated_diameter": {
        "kilometers": {
            "estimated_diameter_min": 0.2315021222,
            "estimated_diameter_max": 0.5176544822
        },
        "meters": {
            "estimated_diameter_min": 231.5021222103,
            "estimated_diameter_max": 517.6544821978
        },
        "miles": {
            "estimated_diameter_min": 0.1438487052,
            "estimated_diameter_max": 0.3216554833
        },
        "feet": {
            "estimated_diameter_min": 759.5214226325,
            "estimated_diameter_max": 1698.3415313737
        }
    },
    "is_potentially_hazardous_asteroid": false,
    "close_approach_data": [
        {
            "close_approach_date": "2012-12-13",
            "close_approach_date_full": "2012-Dec-13 16:12",
            "epoch_date_close_approach": 1355415120000,
            "relative_velocity": {
                "kilometers_per_second": "14.0853787725",
                "kilometers_per_hour": "50707.3635811555",
                "miles_per_hour": "31507.5837763019"
            },
            "miss_distance": {
                "astronomical": "0.1048615952",
                "lunar": "40.7911605328",
                "kilometers": "15687071.286722224",
                "miles": "9747494.1002617312"
            },
            "orbiting_body": "Earth"
        }
    ],
    "orbital_data": {
        "orbit_id": "10",
        "orbit_determination_date": "2017-04-06 08:47:14",
        "first_observation_date": "2013-01-11",
        "last_observation_date": "2013-02-04",
        "data_arc_in_days": 24,
        "observations_used": 80,
        "orbit_uncertainty": "7",
        "minimum_orbit_intersection": ".0674724",
        "jupiter_tisserand_invariant": "3.214",
        "epoch_osculation": "2459000.5",
        "eccentricity": ".6370612779627485",
        "semi_major_axis": "2.35311913775608",
        "inclination": "14.60887342445886",
        "ascending_node_longitude": "280.4944771911894",
        "orbital_period": "1318.451931482193",
        "perihelion_distance": ".8540380526585909",
        "perihelion_argument": "112.6027683584979",
        "aphelion_distance": "3.852200222853569",
        "perihelion_time": "2458872.844833693322",
        "mean_anomaly": "34.85592365793778",
        "mean_motion": ".2730474971471208",
        "equinox": "J2000",
        "orbit_class": {
            "orbit_class_type": "APO",
            "orbit_class_description": "Near-Earth asteroid orbits which cross the Earth’s orbit similar to that of 1862 Apollo",
            "orbit_class_range": "a (semi-major axis) > 1.0 AU; q (perihelion) < 1.017 AU"
        }
    },
    "is_sentry_object": false
}